STARLINK-5683           
1 55452U 23015D   23057.89120430  .00013283  00000+0  10464-3 0  9990
2 55452  43.0003 240.6560 0002081 255.9739 104.0897 15.71339735  4026
STARLINK-5684           
1 55453U 23015E   23057.89109778  .00004679  00000+0  39112-4 0  9994
2 55453  43.0006 240.6535 0001954 260.1563  99.9084 15.71354142  4022
STARLINK-5636           
1 55454U 23015F   23057.89077535  .00002856  00000+0  25211-4 0  9990
2 55454  43.0002 240.6513 0003668 248.2618 111.7859 15.71370436  4024
STARLINK-5680           
1 55455U 23015G   23057.57349511  .00005698  00000+0  46841-4 0  9991
2 55455  43.0004 242.5732 0002437 259.4778 100.5815 15.71368800  3978
STARLINK-5058           
1 55456U 23015H   23057.89088267  .00035979  00000+0  27651-3 0  9997
2 55456  43.0002 240.6518 0002561 281.5347  78.5233 15.71363400  4020
STARLINK-5682           
1 55457U 23015J   23057.82743121  .00078885  00000+0  59968-3 0  9997
2 55457  43.0005 241.0358 0002232 261.7128  98.3487 15.71339907  4018
STARLINK-5020           
1 55458U 23015K   23057.82680149  .00079274  00000+0  60262-3 0  9990
2 55458  43.0005 241.0309 0002297 266.0184  94.0421 15.71338624  4012
STARLINK-5669           
1 55459U 23015L   23057.57275687  .00005268  00000+0  43559-4 0  9993
2 55459  43.0001 242.5661 0002255 252.2383 107.8239 15.71376390  3974
STARLINK-5678           
1 55460U 23015M   23057.89046873  .00061709  00000+0  47097-3 0  9995
2 55460  42.9997 240.6481 0001811 270.3242  89.7418 15.71333433  4024
STARLINK-5646           
1 55461U 23015N   23057.57287013  .00035049  00000+0  26918-3 0  9991
2 55461  43.0003 242.5686 0001494 239.1277 120.9444 15.71392318  3978
STARLINK-5673           
1 55462U 23015P   23057.82648249  .00056288  00000+0  43002-3 0  9993
2 55462  43.0003 241.0295 0002579 279.1155  80.9421 15.71340287  4017
STARLINK-5677           
1 55463U 23015Q   23057.69956794 -.00003882  00000+0 -26176-4 0  9994
2 55463  43.0003 241.7984 0002171 270.9058  89.1561 15.71343028  3997
STARLINK-5676           
1 55464U 23015R   23057.82616635  .00013723  00000+0  10793-3 0  9997
2 55464  43.0002 241.0262 0002464 279.9828  80.0761 15.71353435  4017
STARLINK-5674           
1 55465U 23015S   23057.88994746  .00069781  00000+0  53129-3 0  9991
2 55465  43.0004 240.6453 0001956 251.5137 108.5518 15.71347435  4021
STARLINK-5628           
1 55466U 23015T   23057.88931276  .00010315  00000+0  82105-4 0  9997
2 55466  43.0001 240.6396 0001889 256.2994 103.7663 15.71326168  4021
STARLINK-5679           
1 55467U 23015U   23057.89015548  .00057472  00000+0  43899-3 0  9995
2 55467  43.0002 240.6471 0002176 286.5683  73.4946 15.71338068  4027
STARLINK-5672           
1 55468U 23015V   23057.88962710  .00066747  00000+0  50874-3 0  9993
2 55468  43.0002 240.6419 0001876 273.0078  87.0576 15.71337798  4024
STARLINK-5681           
1 55469U 23015W   23057.88983593  .00012254  00000+0  96849-4 0  9993
2 55469  43.0002 240.6444 0002181 270.8372  89.2246 15.71331092  4024
STARLINK-5708           
1 55470U 23015X   23057.88951836  .00017048  00000+0  13328-3 0  9996
2 55470  43.0003 240.6414 0001762 279.8288  80.2381 15.71338025  4027
STARLINK-5711           
1 55471U 23015Y   23058.00001157  .00124928  00000+0  94438-3 0  9991
2 55471  43.0012 239.9747 0002615 283.5495 342.8827 15.71290891  1306
STARLINK-5705           
1 55472U 23015Z   23057.88885818  .00272028  00000+0  19680-2 0  9991
2 55472  43.0000 240.6364 0004604 284.9017  75.1341 15.71859175  4028
STARLINK-5687           
1 55473U 23015AA  23057.69850986 -.00015821  00000+0 -11747-3 0  9994
2 55473  43.0001 241.7884 0001894 268.2131  91.8519 15.71345088  3999
STARLINK-5689           
1 55474U 23015AB  23058.00001157 -.01172807  00000+0 -12089-1 0  9996
2 55474  43.0010 240.0075 0001508 273.4261 340.8279 15.66538693  1301
STARLINK-5650           
1 55475U 23015AC  23057.57128199  .00031172  00000+0  23971-3 0  9994
2 55475  43.0004 242.5543 0002156 251.0565 109.0069 15.71409185  3977
STARLINK-5596           
1 55476U 23015AD  23058.00001157  .00090465  00000+0  68757-3 0  9999
2 55476  42.9909 238.5527 0001969 276.6160 188.9185 15.71294562  1303
STARLINK-5685           
1 55477U 23015AE  23056.68111555  .00006361  00000+0  51908-4 0  9999
2 55477  43.0004 247.9193 0002422 259.9069 100.1525 15.71359355  3838
STARLINK-5691           
1 55478U 23015AF  23056.68039518  .00045194  00000+0  34640-3 0  9998
2 55478  42.9999 247.9147 0001931 263.0186  97.0462 15.71342157  3835
STARLINK-5688           
1 55479U 23015AG  23056.68127583 -.00279143  00000+0 -22292-2 0  9993
2 55479  42.9999 247.9224 0003225 244.0382 116.0153 15.71004106  3835
STARLINK-5690           
1 55480U 23015AH  23058.00001157 -.01470318  00000+0 -15072-1 0  9996
2 55480  43.0008 239.9931 0001581 269.8942 350.4693 15.66844839  1308
STARLINK-5694           
1 55481U 23015AJ  23058.00001157 -.01187590  00000+0 -12203-1 0  9997
2 55481  43.0008 240.0029 0001470 273.9002 342.2314 15.66648768  1302
STARLINK-5693           
1 55482U 23015AK  23058.00001157 -.01190142  00000+0 -11931-1 0  9992
2 55482  43.0007 239.9790 0001473 277.8286 348.0280 15.67257145  1306
STARLINK-5692           
1 55483U 23015AL  23058.00001157 -.01197139  00000+0 -12155-1 0  9995
2 55483  43.0009 239.9902 0001222 274.5430 346.5208 15.66964271  1308
STARLINK-5696           
1 55484U 23015AM  23056.80734616 -.00151004  00000+0 -11971-2 0  9991
2 55484  43.0001 247.1477 0002121 265.1653  94.8972 15.70791067  3850
STARLINK-5695           
1 55485U 23015AN  23058.00001157 -.01186715  00000+0 -12125-1 0  9992
2 55485  43.0008 239.9977 0001491 272.4782 345.7432 15.66785470  1308
STARLINK-5704           
1 55486U 23015AP  23058.00001157 -.01183735  00000+0 -11942-1 0  9998
2 55486  43.0007 239.9857 0001542 277.1098 345.9857 15.67088383  1307
STARLINK-5701           
1 55487U 23015AQ  23058.00001157 -.01185999  00000+0 -12150-1 0  9995
2 55487  43.0008 240.0004 0001503 274.3926 342.8035 15.66718636  1306
STARLINK-5706           
1 55488U 23015AR  23056.87026483 -.00333326  00000+0 -27075-2 0  9999
2 55488  42.9997 246.7595 0002112 346.3981  13.6830 15.70766797  3863
STARLINK-5371           
1 55489U 23015AS  23058.00001157 -.01187903  00000+0 -12023-1 0  9993
2 55489  43.0008 239.9882 0001489 275.1501 346.9136 15.67018903  1308
STARLINK-5373           
1 55490U 23015AT  23058.00001157 -.01185730  00000+0 -11735-1 0  9990
2 55490  43.0010 239.9671 0001500 275.0436 355.4881 15.67559683  1306
STARLINK-5364           
1 55491U 23015AU  23057.88504311 -.00036468  00000+0 -27620-3 0  9990
2 55491  42.9998 240.5964 0002280 255.1672 104.8943 15.71323897  4028
STARLINK-5013           
1 55492U 23015AV  23057.91667824 -.01157626  00000+0 -11429-1 0  9993
2 55492  43.0008 240.4749 0001333 282.6283 234.2242 15.67558689  1306
STARLINK-5362           
1 55493U 23015AW  23057.91667824 -.01161403  00000+0 -11408-1 0  9999
2 55493  43.0011 240.4703 0001371 282.5750 236.1524 15.67690358  1305
STARLINK-5344           
1 55494U 23015AX  23057.91667824 -.01163610  00000+0 -11364-1 0  9993
2 55494  43.0010 240.4655 0001359 276.8162 243.8223 15.67835035  1304
STARLINK-5100           
1 55495U 23015AY  23057.88734735 -.00119229  00000+0 -92486-3 0  9998
2 55495  43.0005 240.6234 0007334 314.3726  45.6541 15.71156093  4025
STARLINK-5139           
1 55496U 23015AZ  23057.91667824 -.01159885  00000+0 -11233-1 0  9999
2 55496  43.0011 240.4587 0001416 279.9254 243.4475 15.68029519  1309
STARLINK-5363           
1 55497U 23015BA  23057.91667824 -.01164118  00000+0 -11342-1 0  9996
2 55497  43.0010 240.4632 0001349 276.9223 244.5978 15.67893746  1308
STARLINK-5365           
1 55498U 23015BB  23056.93303191 -.00165363  00000+0 -13095-2 0  9992
2 55498  43.0003 246.3696 0001686 278.7314  81.3362 15.70865554  3879
STARLINK-5366           
1 55499U 23015BC  23056.93279639 -.00255971  00000+0 -20375-2 0  9996
2 55499  43.0006 246.3668 0002170 247.2103 112.8535 15.71019284  4626
STARLINK-5141           
1 55500U 23015BD  23057.91667824 -.01078179  00000+0 -10591-1 0  9997
2 55500  43.0010 240.4605 0000963 280.6290 241.8972 15.67928395  1303
STARLINK-5367           
1 55501U 23015BE  23056.93290647 -.00131101  00000+0 -10286-2 0  9990
2 55501  43.0006 246.3682 0002334 251.5336 108.5278 15.70969031  3879
FALCON 9 DEB            
1 55502U 23015BF  23057.90838722  .00301469  41303-4  97137-3 0  9992
2 55502  42.9878 238.0894 0016070 317.3300  42.6325 15.89913909  4057
FALCON 9 DEB            
1 55503U 23015BG  23057.89621088  .00320451  46306-4  96102-3 0  9997
2 55503  42.9837 237.9814 0018043 314.9862  44.9550 15.91235147  4050
FALCON 9 DEB            
1 55504U 23015BH  23057.87922783  .00300923  42143-4  85724-3 0  9997
2 55504  42.9810 237.8310 0018471 328.0239  31.9514 15.92211647  4057
FALCON 9 DEB            
1 55505U 23015BJ  23057.87962525  .00303137  42522-4  87393-3 0  9991
2 55505  42.9768 237.8304 0020160 325.2034  34.7522 15.91923454  4058
ELEKTRO-L 4             
1 55506U 23016A   23057.91585117 -.00000037  00000+0  00000+0 0  9996
2 55506   0.5112 285.5533 0037520  49.4836 310.0945  1.00714680   216
BLOCK DM-SL R/B         
1 55507U 23016B   23056.72064320 -.00000098  00000+0  00000+0 0  9990
2 55507   0.3892 275.8863 0096331  29.7558  53.4339  1.03218543   210
AMAZONAS NEXUS          
1 55508U 23017A   23055.30622295 -.00000431  00000+0  00000+0 0  9997
2 55508  18.8982 348.7636 7745099 183.0157 165.2403  1.08590625   214
FALCON 9 R/B            
1 55509U 23017B   23048.05522156  .00001006  00000+0  23504-2 0  9992
2 55509  24.9411 349.6435 8170614 181.2257 173.4294  1.25162264   126
PROGRESS-MS 22          
1 55560U 23018A   23057.57067130  .00017185  00000+0  31528-3 0  9994
2 55560  51.6391 156.4498 0005527  31.2351 149.1257 15.49362822384634
